     2.100          NAVIGATION                              RINEX VERSION / TYPE
fic2rin                                 02/22/2010 01:06:33 PGM / RUN BY / DATE
                                                            END OF HEADER
 3 10  2 21  8  0  0.0  .518706161529D-03  .511590769747D-11  .000000000000D+00
     .300000000000D+02 -.285625000000D+02  .567845081598D-08  .116042496941D+01
    -.138022005558D-05  .128399063833D-01  .705197453499D-05  .515368908119D+04
     .288000000000D+05 -.201165676117D-06 -.165820127280D+00  .139698386192D-06
     .927307933343D+00  .229906250000D+03  .980905263853D+00 -.870929134837D-08
    -.143934566881D-09  .100000000000D+01  .157200000000D+04  .000000000000D+00
     .240000000000D+01  .000000000000D+00 -.419095158577D-08  .300000000000D+02
     .216060000000D+05  .400000000000D+01
 4 10  2 21  8  0  0.0  .201179645956D-04  .898126018001D-11  .000000000000D+00
     .102000000000D+03  .451562500000D+02  .489520390489D-08 -.198159761971D+01
     .220164656639D-05  .911748677026D-02  .925362110138D-05  .515363797760D+04
     .288000000000D+05  .104308128357D-06  .100299352307D+01 -.912696123123D-07
     .939281455540D+00  .189906250000D+03  .597580043333D+00 -.801926260590D-08
    -.129648257513D-09  .100000000000D+01  .157200000000D+04  .000000000000D+00
     .240000000000D+01  .000000000000D+00 -.605359673500D-08  .102000000000D+03
     .216060000000D+05  .400000000000D+01
 5 10  2 21  8  0  0.0 -.700773671269D-05  .216004991671D-11  .000000000000D+00
     .640000000000D+02  .948437500000D+02  .455554689967D-08  .274979727052D+01
     .491552054882D-05  .189202488400D-02  .576674938202D-05  .515365859604D+04
     .288000000000D+05  .298023223877D-07  .204445157461D+01 -.223517417908D-07
     .959278408996D+00  .269750000000D+03  .346717164356D+00 -.818605526777D-08
     .435732435719D-10  .100000000000D+01  .157200000000D+04  .000000000000D+00
     .240000000000D+01  .000000000000D+00 -.884756445885D-08  .640000000000D+02
     .216060000000D+05  .400000000000D+01
 6 10  2 21  8  0  0.0  .246373005211D-03 -.568434188608D-11  .000000000000D+00
     .240000000000D+02 -.271250000000D+02  .537700968832D-08 -.286148891392D+01
    -.131130218506D-05  .602493702900D-02  .669807195663D-05  .515366187096D+04
     .288000000000D+05  .186264514923D-07 -.960196068249D-01  .143423676491D-06
     .934700115452D+00  .233937500000D+03 -.114183613166D+01 -.829141679936D-08
    -.471448209139D-10  .100000000000D+01  .157200000000D+04  .000000000000D+00
     .240000000000D+01  .000000000000D+00 -.465661287308D-08  .240000000000D+02
     .216060000000D+05  .400000000000D+01
 7 10  2 21  8  0  0.0  .257138162851D-05 -.568434188608D-12  .000000000000D+00
     .102000000000D+03 -.467500000000D+02  .422731894194D-08 -.374899245407D+00
    -.248663127422D-05  .324204645585D-02  .799074769020D-05  .515372595787D+04
     .288000000000D+05  .465661287308D-07 -.213927763631D+01  .372529029846D-08
     .970529502747D+00  .229468750000D+03  .307223537683D+01 -.795818863336D-08
     .135719938995D-09  .100000000000D+01  .157200000000D+04  .000000000000D+00
     .240000000000D+01  .000000000000D+00 -.107102096081D-07  .102000000000D+03
     .216060000000D+05  .400000000000D+01
 8 10  2 21  8  0  0.0  .351527705789D-05  .454747350886D-12  .000000000000D+00
     .700000000000D+02 -.515000000000D+02  .372908390274D-08 -.973621438624D+00
    -.287219882011D-05  .109396983171D-01  .805221498013D-05  .515371887207D+04
     .288000000000D+05  .670552253723D-07 -.207333741435D+01 -.176951289177D-06
     .991808583940D+00  .237750000000D+03  .308937366987D+01 -.771032116583D-08
     .250367571671D-09  .100000000000D+01  .157200000000D+04  .000000000000D+00
     .240000000000D+01  .000000000000D+00 -.419095158577D-08  .700000000000D+02
     .216060000000D+05  .400000000000D+01
 9 10  2 21  8  0  0.0  .107338652015D-03  .227373675443D-11  .000000000000D+00
     .410000000000D+02 -.670625000000D+02  .414588697855D-08 -.110553179338D+01
    -.317022204399D-05  .206944601377D-01  .823289155960D-05  .515360770988D+04
     .288000000000D+05 -.260770320892D-06 -.217136040263D+01  .359490513802D-06
     .979349896666D+00  .235562500000D+03  .153048604922D+01 -.812819571483D-08
     .889322758148D-10  .100000000000D+01  .157200000000D+04  .000000000000D+00
     .240000000000D+01  .000000000000D+00 -.558793544769D-08  .410000000000D+02
     .216060000000D+05  .400000000000D+01
10 10  2 21  8  0  0.0 -.360384583473D-04 -.102318153949D-11  .000000000000D+00
     .640000000000D+02  .952187500000D+02  .457483341732D-08  .274769049586D+01
     .483356416225D-05  .913656794000D-02  .551342964172D-05  .515346187782D+04
     .288000000000D+05  .223517417908D-07  .207076034956D+01 -.124797224998D-06
     .954336772666D+00  .272218750000D+03  .654367320843D+00 -.811212361680D-08
     .646455498895D-10  .100000000000D+01  .157200000000D+04  .000000000000D+00
     .240000000000D+01  .000000000000D+00 -.279396772385D-08  .640000000000D+02
     .216060000000D+05  .400000000000D+01
11 10  2 21  8  0  0.0 -.465600751340D-04 -.216004991671D-11  .000000000000D+00
     .520000000000D+02  .170312500000D+02  .624311719375D-08 -.463175144075D+00
     .923871994019D-06  .104937870055D-01  .872462987900D-05  .515372619820D+04
     .288000000000D+05  .558793544769D-08  .771202253589D+00  .197440385818D-06
     .888717095069D+00  .171218750000D+03  .794270953190D+00 -.894572976841D-08
    -.294297972978D-09  .100000000000D+01  .157200000000D+04  .000000000000D+00
     .240000000000D+01  .000000000000D+00 -.116415321827D-07  .520000000000D+02
     .216060000000D+05  .400000000000D+01
12 10  2 21  8  0  0.0 -.147437211126D-03  .477484718431D-11  .000000000000D+00
     .600000000000D+01 -.325625000000D+02  .453590322429D-08 -.278236263303D+00
    -.167265534401D-05  .343784200959D-02  .771880149841D-05  .515374340630D+04
     .288000000000D+05  .409781932831D-07 -.108546861070D+01 -.298023223877D-07
     .969613092826D+00  .238875000000D+03 -.539205464598D+00 -.798568977889D-08
     .371086885830D-09  .100000000000D+01  .157200000000D+04  .000000000000D+00
     .240000000000D+01  .000000000000D+00 -.121071934700D-07  .600000000000D+01
     .216060000000D+05  .400000000000D+01
13 10  2 21  8  0  0.0  .306381378323D-03 -.227373675443D-12  .000000000000D+00
     .103000000000D+03 -.229687500000D+02  .374301305437D-08  .213257699167D+01
    -.120326876640D-05  .415973435156D-02  .462308526039D-05  .515358726311D+04
     .288000000000D+05  .651925802231D-07 -.312236037327D+01 -.409781932831D-07
     .993814557691D+00  .306218750000D+03  .163844631964D+01 -.779889628391D-08
    -.101789954246D-09  .100000000000D+01  .157200000000D+04  .000000000000D+00
     .240000000000D+01  .000000000000D+00 -.111758708954D-07  .103000000000D+03
     .216060000000D+05  .400000000000D+01
14 10  2 21  8  0  0.0  .141765922308D-04  .420641299570D-11  .000000000000D+00
     .800000000000D+02 -.109062500000D+02  .394587864740D-08  .195485184626D+01
    -.525265932083D-06  .497734418605D-02  .416673719883D-05  .515371141434D+04
     .288000000000D+05 -.651925802231D-07  .313964145588D+01 -.670552253723D-07
     .987132075179D+00  .310781250000D+03 -.209748188246D+01 -.796140305296D-08
    -.442875590403D-10  .100000000000D+01  .157200000000D+04  .000000000000D+00
     .240000000000D+01  .000000000000D+00 -.884756445885D-08  .800000000000D+02
     .216060000000D+05  .400000000000D+01
15 10  2 21  8  0  0.0 -.304746441543D-03  .318323145621D-11  .000000000000D+00
     .820000000000D+02 -.103125000000D+02  .475876965043D-08  .198829177338D+01
    -.521540641785D-06  .240318023134D-02  .344030559063D-05  .515373078537D+04
     .288000000000D+05  .558793544769D-08  .307867283081D+01  .353902578354D-07
     .954815903206D+00  .309375000000D+03 -.280197635608D+00 -.841213611352D-08
    -.118219210019D-09  .100000000000D+01  .157200000000D+04  .000000000000D+00
     .240000000000D+01  .000000000000D+00 -.977888703346D-08  .820000000000D+02
     .216060000000D+05  .400000000000D+01
16 10  2 21  8  0  0.0 -.436948612332D-04 -.397903932026D-11  .000000000000D+00
     .520000000000D+02 -.244687500000D+02  .442625579989D-08 -.262198164541D+01
    -.118091702461D-05  .569609249942D-02  .757351517677D-05  .515371362114D+04
     .288000000000D+05 -.894069671631D-07 -.106815767431D+01 -.931322574615D-08
     .970901437965D+00  .240656250000D+03 -.270903971598D+00 -.783889795014D-08
     .322870591713D-09  .100000000000D+01  .157200000000D+04  .000000000000D+00
     .240000000000D+01  .000000000000D+00 -.977888703346D-08  .520000000000D+02
     .216060000000D+05  .400000000000D+01
17 10  2 21  8  0  0.0  .131498090923D-03  .284217094304D-11  .000000000000D+00
     .800000000000D+02 -.281875000000D+02  .467590905610D-08  .239152817794D+01
    -.153109431267D-05  .518369814381D-02  .778958201408D-05  .515356415176D+04
     .288000000000D+05 -.968575477600D-07 -.252969388848D-01 -.633299350739D-07
     .960463919772D+00  .230218750000D+03 -.257108500211D+01 -.795425989828D-08
    -.180007498035D-09  .100000000000D+01  .157200000000D+04  .000000000000D+00
     .340000000000D+01  .000000000000D+00 -.102445483208D-07  .800000000000D+02
     .216060000000D+05  .400000000000D+01
19 10  2 21  8  0  0.0 -.169952400029D-04 -.238742359215D-11  .000000000000D+00
     .600000000000D+02 -.295312500000D+02  .484877339945D-08  .180285089081D+01
    -.130198895931D-05  .616955687292D-02  .751204788685D-05  .515369868469D+04
     .288000000000D+05  .968575477600D-07  .299613200550D-01  .968575477600D-07
     .958112428177D+00  .231625000000D+03 -.180504348902D+00 -.811069498586D-08
    -.247510309798D-09  .100000000000D+01  .157200000000D+04  .000000000000D+00
     .240000000000D+01  .000000000000D+00 -.149011611938D-07  .600000000000D+02
     .216060000000D+05  .400000000000D+01
